#dP2022  6  1  0  0  0.00000000     289 ORBIT ITRF  BHN ESOC                    
## 2212 259200.00000000   300.00000000 59731 0.0000000000000                    
+  117   G22G13G28G21G07G05G20G31G17G15G16G29G12G19G02G25G01                    
+        G30G24G27G06G09G03G32G26G08G10G04G18G23G14G11R09R11                    
+        R20R19R13R01R22R08R03R07R02R17R14R18R21R05R15R12R04                    
+        R24E11E12E19E18E14E26E24E30E08E09E01E02E07E03E04E05                    
+        E21E25E27E31E36E13E15E33E34E10C11C12C14C19C20C27C28                    
+        C22C21C29C30C23C24C26C25C32C33C35C34C36C37C46C45C44                    
+        C43C41C42C06C07C08C09C10C13C16C39C40J02J03J04  0  0                    
++         4  4  5  4  4  5  5  4  4  4  5  4  4  5  5  4  4                    
++         4  4  4  4  4  5  4  5  4  4  4  4  4  4  4  5  5                    
++         6  6  6  5  7  5  4  5  5  5  5  5  5  5  5  6  5                    
++         5  5  4  4  5  4  5  5  4  4  5  4  5  4  5  4  5                    
++         4  4  4  4  4  5  5  4  4  5  5  5  5  6  5  5  5                    
++         6  6  5  4  5  5  5  4  5  5  5  5  5  5  6  6  6                    
++         4  5  6  5  6  7  6  6  6  6  6  8  7  8  8  0  0                    
%c M  cc GPS ccc cccc cccc cccc cccc ccccc ccccc ccccc ccccc                    
%c cc cc ccc ccc cccc cccc cccc cccc ccccc ccccc ccccc ccccc                    
%f  0.0000000  0.000000000  0.00000000000  0.000000000000000                    
%f  0.0000000  0.000000000  0.00000000000  0.000000000000000                    
%i    0    0    0    0      0      0      0      0         0                    
%i    0    0    0    0      0      0      0      0         0                    
/* CCCCCCCCCCCCCCCCCCCCCCCCCCCCCCCCCCCCCCCCCCCCCCCCCCCCCCCCCCCCCCCCCCCCCCCCCCCCC
/* CCCCCCCCCCCCCCCCCCCCCCCCCCCCCCCCCCCCCCCCCCCCCCCCCCCCCCCCCCCCCCCCCCCCCCCCCCCCC
/* CCCCCCCCCCCCCCCCCCCCCCCCCCCCCCCCCCCCCCCCCCCCCCCCCCCCCCCCCCCCCCCCCCCCCCCCCCCCC
/* PCV:IGS        OL/AL:EOT11A   NONE     YN ORB:CoN CLK:CoN                    
*  2022  6  1 19  5  0.00000000                                                 
PG22 -13821.521138  17283.574243  14971.811716    268.754987                    
PG13   -948.625107 -15523.590838 -21662.143758    322.182910                    
PG28   9262.809406 -23133.795540  -9003.520627    346.782569                    
PG21  18972.336319  16682.288922  -8604.700850    161.265000                    
PG07  22541.095338   2660.191987 -13781.819910    322.155903                    
PG05  -6211.788520 -24279.519919  -8733.560159    -83.977221                    
PG20  -1018.678972 -26496.501204   3003.080514    513.459177                    
PG31  -6297.835427  14056.817606  21476.149021   -180.048714                    
PG17  21763.749912 -14236.610878   5949.455030    619.840597                    
PG15 -13531.423697  -9740.811910 -21136.890563    -56.603186                    
PG16    -36.674626  25936.058141  -4713.264803   -505.718655                    
PG29 -24168.675433   2723.642527  10703.731112   -519.730468                    
PG12  -9831.271497 -17661.710414  17020.532971   -224.540475                    
PG19  16966.660410 -15828.914135  12463.986042    165.072595                    
PG02  -7502.377594 -18257.271848  18351.698694   -653.009025                    
PG25 -15060.626525  -2404.732360  21469.768685    332.103457                    
PG01  22511.030608  14451.095200    150.197816    350.289243                    
PG30  16758.621404  -6316.968151 -19602.937923   -530.001441                    
PG24 -21780.058187 -15041.378691  -4392.661229    229.803700                    
PG27  -2101.509143  16926.121802 -20467.218499    211.053060                    
PG06   8077.667393 -12239.430697  22206.639116    326.453377                    
PG09  23861.009674  -4542.512597  10712.837561   -332.028642                    
PG03  12610.585657  13123.156631  19273.859124   -264.681135                    
PG32 -19485.681001  16387.070086   7357.916072   -140.884820                    
PG26  -4724.100210  24964.659820   7086.391048    209.584685                    
PG08  11403.607540  10770.137297 -21516.876420    -70.397119                    
PG10 -11524.977878  17429.359129 -16072.585058   -437.829918                    
PG04  18711.943419   5051.663577  18207.815527   -161.487770                    
PG18 -22289.668399  -3006.425164 -14226.483161    154.120925                    
PG23 -14629.233331   6380.392299 -21223.124106    -25.553119                    
PG14  13059.762288 -16011.011800 -16638.359635   -110.478481                    
PG11  -6002.588183 -19109.219630  17446.626865    -18.565515                    
PR09  -7804.332321 -23582.666583  -5602.936648     58.179452                    
PR11 -12620.611136  -2596.565861  22022.807919     37.392068                    
PR20  -4316.551460 -10851.836672  22671.372090    -71.793116                    
PR19  16783.549523  -5648.895594  18351.118788   -191.197243                    
PR13   7058.339458  23513.397113   6918.184831    -23.134648                    
PR01 -15205.725931  20446.340751  -1366.396897      9.321985                    
PR22 -24765.522441   -667.160369  -5876.958319   -186.910949                    
PR08 -16937.718097   9931.922355 -16208.352364    -65.493437                    
PR03   9144.544137   6044.129711  23082.080714     57.638448                    
PR07  -9536.002745  -5431.695184 -22981.951466     35.827632                    
PR02  -4094.874274  18680.466590  16894.477267    520.054306                    
PR17  21252.818186   7876.196846 -11665.129325    531.156600                    
PR14  14097.769121  17819.967479 -11599.293845     25.396712                    
PR18  25027.140160    925.299239   4994.795856    118.814070                    
PR21 -22128.274404  -7436.227666  10303.024277   -306.024905                    
PR05  15606.185794 -20177.647173    748.957332     93.843689                    
PR15  12417.170110   1818.694574 -22187.548673     95.676226                    
PR12  -3503.836767  15592.217221  19902.934384     18.675181                    
PR04  16905.425852  -9760.500425  16455.900590    144.323271                    
PR24   5319.484136  11214.105719 -22273.114096     96.575473                    
PE11  10169.499180  19253.890751 -20074.658147   3488.517142                    
PE12 -11677.331247  12013.288467 -24407.867085   4584.393963                    
PE19 -25975.544649   7624.813625 -11960.066243  -5497.079445                    
PE18  22010.114219 -11128.934884   1706.787251  -1379.715916                    
PE14 -22829.738835  19472.968332  -9962.970875  -1820.346981                    
PE26 -25426.253137 -14709.532192   3639.372852  -1213.073694                    
PE24   3150.108625  29380.712722  -1569.589528   -647.279492                    
PE30   9319.997805 -23109.124333 -15995.051114   -558.068629                    
PE08  19323.574309 -20668.761132  -8660.849461   -539.227086                    
PE09  -1030.061206  19535.902575  22227.951589   -538.664302                    
PE01 -16409.396629   3197.844866  24427.469390   -487.922656                    
PE02  16385.800972  -3414.655373 -24416.200441    302.944349                    
PE07   1092.488762 -19653.573376 -22091.312459   -674.309112                    
PE03  26226.664466  -9563.705208   9824.579069   -564.377438                    
PE04 -19533.438350  20591.327782   8423.459516  -1040.751035                    
PE05  17620.707178   7303.567134  22642.560031   -176.130404                    
PE21 -14404.509042 -17292.151900  19225.280361   -737.650144                    
PE25  14307.415659  17555.263483 -19054.118967   -576.052051                    
PE27  -4017.024088 -29206.868352   2684.579941   -312.299392                    
PE31  -8649.281206  23822.563522  15299.165449   -497.576938                    
PE36  25061.664823  15078.192127  -4598.249792   -382.034763                    
PE13  -9499.827832 -19101.355207  20512.311549    429.044518                    
PE15  11797.062913 -11862.619260  24418.753274    742.044650                    
PE33 -26018.161077  -2325.042509 -13914.125191   -456.057283                    
PE34  25954.121317   2144.593685  14055.435507   -520.014694                    
PE10  -1109.963546  16827.512046 -24339.058889   -516.872432                    
PC11  24349.436413  -8181.844887  10924.833439    388.335016                    
PC12  26946.661712   2927.453897  -6581.083569   -606.422593                    
PC14  17943.615526 -17293.997558  12517.394455    489.913074                    
PC19 -14224.247314  23746.585912  -3620.328668    863.514427                    
PC20 -18679.847935  10004.871982 -18159.306410   -940.000133                    
PC27 -22431.995693  -8572.946692  14178.095243    732.302691                    
PC28  -4659.452744 -15503.546791  22728.304601     73.549361                    
PC22  -1420.913623  24343.232715  13605.149113   -966.533297                    
PC21  12132.093433  10774.672327  22727.122171   -402.744662                    
PC29 -16164.400742  14037.673053 -17910.039636    562.569790                    
PC30 -27542.995689   3968.372203  -1945.291243    499.271367                    
PC23  -7993.159742 -24808.739695  -9959.174821   -931.684363                    
PC24  19211.099012   2800.604302 -20044.295888   -972.712144                    
PC26  19735.845956  17998.140338  -8033.112031    729.463758                    
PC25   6853.702887 -16722.377067 -21273.147649   -728.144785                    
PC32 -12202.300362 -10687.530897 -22686.693543   -965.657867                    
PC33  14151.182542 -23744.319852   3752.333568   -967.341555                    
PC35   4008.217311  15599.226586 -22804.077732    301.027864                    
PC34  27387.393009  -4566.713337   2907.399333   -390.432361                    
PC36  -7691.738108  16123.590337  21464.702700   -966.023289                    
PC37 -18969.493423 -19265.353416   6964.801888   -908.469698                    
PC46 -18612.201582  -1286.827804  20767.831198   -356.211326                    
PC45   8263.020529  24798.288468   9753.340652    772.302298                    
PC44  22614.430187   7992.928429 -14307.100679    678.560576                    
PC43  16905.368071 -13812.391512  17382.606229   -920.719412                    
PC41   1720.357325 -24523.762403 -13144.517808   -967.916657                    
PC42  18652.008563  -8839.330642  18815.680461   -965.369312                    
PC06 -10922.613183  23861.368606  32996.364356    102.782682                    
PC07 -13630.663413  39806.796285  -3941.327327   -243.232175                    
PC08   1186.573626  31712.901880 -27692.014817    342.150450                    
PC09  -2336.968167  24611.430733  34512.326216   -842.947622                    
PC10  -7538.922063  40301.153810 -10643.918115    128.942725                    
PC13   6441.539305  34977.421188 -22303.405724    -16.048053                    
PC16 -14895.406048  22771.004262  32327.489440    136.461021                    
PC39 -20596.910500  22189.361924  29314.442896     34.938456                    
PC40 -20573.975337  36903.664044  -1080.772254    273.873572                    
PJ02 -26810.625911  25862.150652  24818.781523     -0.391850                    
PJ03 -31102.112319  17495.429123 -17758.196149     -2.555045                    
PJ04 -22176.413276  33231.207363  -8524.359303    106.049171                    
EOF                                                                             
